[{"OBJECT_NAME":"STARLINK-37159","OBJECT_ID":"2026-055Y","EPOCH":"2026-03-26T12:00:01.999296","MEAN_MOTION":16.02842256,"ECCENTRICITY":5.47e-5,"INCLINATION":53.1591,"RA_OF_ASC_NODE":253.5582,"ARG_OF_PERICENTER":100.4961,"MEAN_ANOMALY":247.5076,"EPHEMERIS_TYPE":0,"CLASSIFICATION_TYPE":"U","NORAD_CAT_ID":68284,"ELEMENT_SET_NO":999,"REV_AT_EPOCH":233,"BSTAR":-0.0015855,"MEAN_MOTION_DOT":-0.00984268,"MEAN_MOTION_DDOT":0.00033303},{"OBJECT_NAME":"STARLINK-36725","OBJECT_ID":"2026-055Z","EPOCH":"2026-03-26T12:00:01.999296","MEAN_MOTION":16.02966385,"ECCENTRICITY":5.12e-5,"INCLINATION":53.1587,"RA_OF_ASC_NODE":253.554,"ARG_OF_PERICENTER":100.7728,"MEAN_ANOMALY":249.1025,"EPHEMERIS_TYPE":0,"CLASSIFICATION_TYPE":"U","NORAD_CAT_ID":68285,"ELEMENT_SET_NO":999,"REV_AT_EPOCH":233,"BSTAR":-0.0015806,"MEAN_MOTION_DOT":-0.00988485,"MEAN_MOTION_DDOT":0.00033608},{"OBJECT_NAME":"STARLINK-36998","OBJECT_ID":"2026-055AA","EPOCH":"2026-03-26T12:00:01.999296","MEAN_MOTION":16.0328407,"ECCENTRICITY":4.95e-5,"INCLINATION":53.1595,"RA_OF_ASC_NODE":253.5455,"ARG_OF_PERICENTER":107.2575,"MEAN_ANOMALY":247.3144,"EPHEMERIS_TYPE":0,"CLASSIFICATION_TYPE":"U","NORAD_CAT_ID":68286,"ELEMENT_SET_NO":999,"REV_AT_EPOCH":233,"BSTAR":-0.0015418,"MEAN_MOTION_DOT":-0.00982685,"MEAN_MOTION_DDOT":0.00033372},{"OBJECT_NAME":"STARLINK-37165","OBJECT_ID":"2026-055AB","EPOCH":"2026-03-26T12:00:01.999296","MEAN_MOTION":16.03430083,"ECCENTRICITY":5.11e-5,"INCLINATION":53.159,"RA_OF_ASC_NODE":253.5396,"ARG_OF_PERICENTER":88.2192,"MEAN_ANOMALY":268.5243,"EPHEMERIS_TYPE":0,"CLASSIFICATION_TYPE":"U","NORAD_CAT_ID":68287,"ELEMENT_SET_NO":999,"REV_AT_EPOCH":233,"BSTAR":-0.0015269,"MEAN_MOTION_DOT":-0.00981723,"MEAN_MOTION_DDOT":0.00033368},{"OBJECT_NAME":"STARLINK-37016","OBJECT_ID":"2026-055AC","EPOCH":"2026-03-26T12:00:01.999296","MEAN_MOTION":16.03113887,"ECCENTRICITY":5.35e-5,"INCLINATION":53.1589,"RA_OF_ASC_NODE":253.5496,"ARG_OF_PERICENTER":92.3243,"MEAN_ANOMALY":259.7617,"EPHEMERIS_TYPE":0,"CLASSIFICATION_TYPE":"U","NORAD_CAT_ID":68288,"ELEMENT_SET_NO":999,"REV_AT_EPOCH":233,"BSTAR":-0.001564,"MEAN_MOTION_DOT":-0.00986739,"MEAN_MOTION_DDOT":0.00033557},{"OBJECT_NAME":"STARLINK-37010","OBJECT_ID":"2026-055AD","EPOCH":"2026-03-26T12:00:01.999296","MEAN_MOTION":16.0355174,"ECCENTRICITY":5.07e-5,"INCLINATION":53.1591,"RA_OF_ASC_NODE":253.5351,"ARG_OF_PERICENTER":102.1893,"MEAN_ANOMALY":256.4586,"EPHEMERIS_TYPE":0,"CLASSIFICATION_TYPE":"U","NORAD_CAT_ID":68289,"ELEMENT_SET_NO":999,"REV_AT_EPOCH":233,"BSTAR":-0.0015012,"MEAN_MOTION_DOT":-0.00972358,"MEAN_MOTION_DDOT":0.00032841},{"OBJECT_NAME":"STARLINK-37151","OBJECT_ID":"2026-055AE","EPOCH":"2026-03-26T12:00:01.999296","MEAN_MOTION":16.03657818,"ECCENTRICITY":5.17e-5,"INCLINATION":53.1588,"RA_OF_ASC_NODE":253.5322,"ARG_OF_PERICENTER":112.0846,"MEAN_ANOMALY":248.2237,"EPHEMERIS_TYPE":0,"CLASSIFICATION_TYPE":"U","NORAD_CAT_ID":68290,"ELEMENT_SET_NO":999,"REV_AT_EPOCH":233,"BSTAR":-0.0014858,"MEAN_MOTION_DOT":-0.00968573,"MEAN_MOTION_DDOT":0.00032649},{"OBJECT_NAME":"STARLINK-37107","OBJECT_ID":"2026-057A","EPOCH":"2026-03-26T12:00:01.999296","MEAN_MOTION":16.0594712,"ECCENTRICITY":0.0001144,"INCLINATION":97.2829,"RA_OF_ASC_NODE":208.3959,"ARG_OF_PERICENTER":53.0996,"MEAN_ANOMALY":21.9059,"EPHEMERIS_TYPE":0,"CLASSIFICATION_TYPE":"U","NORAD_CAT_ID":68294,"ELEMENT_SET_NO":999,"REV_AT_EPOCH":186,"BSTAR":-0.0014444,"MEAN_MOTION_DOT":-0.01034611,"MEAN_MOTION_DDOT":0.00037431},{"OBJECT_NAME":"STARLINK-37147","OBJECT_ID":"2026-057B","EPOCH":"2026-03-26T12:00:01.999296","MEAN_MOTION":16.06042195,"ECCENTRICITY":0.0001093,"INCLINATION":97.2827,"RA_OF_ASC_NODE":208.3963,"ARG_OF_PERICENTER":51.9736,"MEAN_ANOMALY":24.5195,"EPHEMERIS_TYPE":0,"CLASSIFICATION_TYPE":"U","NORAD_CAT_ID":68295,"ELEMENT_SET_NO":999,"REV_AT_EPOCH":185,"BSTAR":-0.0014405,"MEAN_MOTION_DOT":-0.01037781,"MEAN_MOTION_DDOT":0.00037687},{"OBJECT_NAME":"STARLINK-37142","OBJECT_ID":"2026-057C","EPOCH":"2026-03-26T12:00:01.999296","MEAN_MOTION":16.06392022,"ECCENTRICITY":0.0001135,"INCLINATION":97.2826,"RA_OF_ASC_NODE":208.3982,"ARG_OF_PERICENTER":49.9326,"MEAN_ANOMALY":31.0976,"EPHEMERIS_TYPE":0,"CLASSIFICATION_TYPE":"U","NORAD_CAT_ID":68296,"ELEMENT_SET_NO":999,"REV_AT_EPOCH":174,"BSTAR":-0.0013989,"MEAN_MOTION_DOT":-0.01029721,"MEAN_MOTION_DDOT":0.00037308},{"OBJECT_NAME":"STARLINK-37115","OBJECT_ID":"2026-057D","EPOCH":"2026-03-26T12:00:01.999296","MEAN_MOTION":16.06294534,"ECCENTRICITY":0.0001199,"INCLINATION":97.2824,"RA_OF_ASC_NODE":208.397,"ARG_OF_PERICENTER":53.7691,"MEAN_ANOMALY":25.8821,"EPHEMERIS_TYPE":0,"CLASSIFICATION_TYPE":"U","NORAD_CAT_ID":68297,"ELEMENT_SET_NO":999,"REV_AT_EPOCH":174,"BSTAR":-0.0014313,"MEAN_MOTION_DOT":-0.01047121,"MEAN_MOTION_DDOT":0.00038436},{"OBJECT_NAME":"STARLINK-36355","OBJECT_ID":"2026-057E","EPOCH":"2026-03-26T12:00:01.999296","MEAN_MOTION":16.0615767,"ECCENTRICITY":0.0001153,"INCLINATION":97.2826,"RA_OF_ASC_NODE":208.3966,"ARG_OF_PERICENTER":55.1281,"MEAN_ANOMALY":22.7782,"EPHEMERIS_TYPE":0,"CLASSIFICATION_TYPE":"U","NORAD_CAT_ID":68298,"ELEMENT_SET_NO":999,"REV_AT_EPOCH":201,"BSTAR":-0.00146,"MEAN_MOTION_DOT":-0.01059114,"MEAN_MOTION_DDOT":0.00039188},{"OBJECT_NAME":"STARLINK-37118","OBJECT_ID":"2026-057F","EPOCH":"2026-03-26T12:00:01.999296","MEAN_MOTION":16.06650314,"ECCENTRICITY":0.000121,"INCLINATION":97.2823,"RA_OF_ASC_NODE":208.3994,"ARG_OF_PERICENTER":53.7629,"MEAN_ANOMALY":30.4288,"EPHEMERIS_TYPE":0,"CLASSIFICATION_TYPE":"U","NORAD_CAT_ID":68299,"ELEMENT_SET_NO":999,"REV_AT_EPOCH":185,"BSTAR":-0.0014033,"MEAN_MOTION_DOT":-0.01049386,"MEAN_MOTION_DDOT":0.00038759},{"OBJECT_NAME":"STARLINK-36875","OBJECT_ID":"2026-057G","EPOCH":"2026-03-26T12:00:01.999296","MEAN_MOTION":16.0654707,"ECCENTRICITY":0.0001205,"INCLINATION":97.2824,"RA_OF_ASC_NODE":208.3987,"ARG_OF_PERICENTER":53.2466,"MEAN_ANOMALY":29.5925,"EPHEMERIS_TYPE":0,"CLASSIFICATION_TYPE":"U","NORAD_CAT_ID":68300,"ELEMENT_SET_NO":999,"REV_AT_EPOCH":191,"BSTAR":-0.0014138,"MEAN_MOTION_DOT":-0.01050484,"MEAN_MOTION_DDOT":0.00038785},{"OBJECT_NAME":"STARLINK-37099","OBJECT_ID":"2026-057H","EPOCH":"2026-03-26T12:00:01.999296","MEAN_MOTION":16.06804788,"ECCENTRICITY":0.0001278,"INCLINATION":97.2822,"RA_OF_ASC_NODE":208.4005,"ARG_OF_PERICENTER":51.4427,"MEAN_ANOMALY":34.6494,"EPHEMERIS_TYPE":0,"CLASSIFICATION_TYPE":"U","NORAD_CAT_ID":68301,"ELEMENT_SET_NO":999,"REV_AT_EPOCH":174,"BSTAR":-0.0013862,"MEAN_MOTION_DOT":-0.0104656,"MEAN_MOTION_DDOT":0.00038641},{"OBJECT_NAME":"STARLINK-37007","OBJECT_ID":"2026-057J","EPOCH":"2026-03-26T12:00:01.999296","MEAN_MOTION":16.07105867,"ECCENTRICITY":0.0001053,"INCLINATION":97.282,"RA_OF_ASC_NODE":208.4019,"ARG_OF_PERICENTER":55.3308,"MEAN_ANOMALY":34.4845,"EPHEMERIS_TYPE":0,"CLASSIFICATION_TYPE":"U","NORAD_CAT_ID":68302,"ELEMENT_SET_NO":999,"REV_AT_EPOCH":196,"BSTAR":-0.0013348,"MEAN_MOTION_DOT":-0.01026909,"MEAN_MOTION_DDOT":0.0003745}]
