STARLINK-37159          
1 68284U 26055Y   26085.50002314 -.00984268  33303-3 -15855-2 0  9992
2 68284  53.1591 253.5582 0000547 100.4961 247.5076 16.02842256  2336
STARLINK-36725          
1 68285U 26055Z   26085.50002314 -.00988485  33608-3 -15806-2 0  9992
2 68285  53.1587 253.5540 0000512 100.7728 249.1025 16.02966385  2334
STARLINK-36998          
1 68286U 26055AA  26085.50002314 -.00982685  33372-3 -15418-2 0  9996
2 68286  53.1595 253.5455 0000495 107.2575 247.3144 16.03284070  2338
STARLINK-37165          
1 68287U 26055AB  26085.50002314 -.00981723  33368-3 -15269-2 0  9998
2 68287  53.1590 253.5396 0000511  88.2192 268.5243 16.03430083  2332
STARLINK-37016          
1 68288U 26055AC  26085.50002314 -.00986739  33557-3 -15640-2 0  9994
2 68288  53.1589 253.5496 0000535  92.3243 259.7617 16.03113887  2338
STARLINK-37010          
1 68289U 26055AD  26085.50002314 -.00972358  32841-3 -15012-2 0  9995
2 68289  53.1591 253.5351 0000507 102.1893 256.4586 16.03551740  2335
STARLINK-37151          
1 68290U 26055AE  26085.50002314 -.00968573  32649-3 -14858-2 0  9994
2 68290  53.1588 253.5322 0000517 112.0846 248.2237 16.03657818  2335
STARLINK-37107          
1 68294U 26057A   26085.50002314 -.01034611  37431-3 -14444-2 0  9993
2 68294  97.2829 208.3959 0001144  53.0996  21.9059 16.05947120  1862
STARLINK-37147          
1 68295U 26057B   26085.50002314 -.01037781  37687-3 -14405-2 0  9995
2 68295  97.2827 208.3963 0001093  51.9736  24.5195 16.06042195  1856
STARLINK-37142          
1 68296U 26057C   26085.50002314 -.01029721  37308-3 -13989-2 0  9997
2 68296  97.2826 208.3982 0001135  49.9326  31.0976 16.06392022  1741
STARLINK-37115          
1 68297U 26057D   26085.50002314 -.01047121  38436-3 -14313-2 0  9997
2 68297  97.2824 208.3970 0001199  53.7691  25.8821 16.06294534  1744
STARLINK-36355          
1 68298U 26057E   26085.50002314 -.01059114  39188-3 -14600-2 0  9997
2 68298  97.2826 208.3966 0001153  55.1281  22.7782 16.06157670  2015
STARLINK-37118          
1 68299U 26057F   26085.50002314 -.01049386  38759-3 -14033-2 0  9991
2 68299  97.2823 208.3994 0001210  53.7629  30.4288 16.06650314  1859
STARLINK-36875          
1 68300U 26057G   26085.50002314 -.01050484  38785-3 -14138-2 0  9990
2 68300  97.2824 208.3987 0001205  53.2466  29.5925 16.06547070  1911
STARLINK-37099          
1 68301U 26057H   26085.50002314 -.01046560  38641-3 -13862-2 0  9995
2 68301  97.2822 208.4005 0001278  51.4427  34.6494 16.06804788  1740
STARLINK-37007          
1 68302U 26057J   26085.50002314 -.01026909  37450-3 -13348-2 0  9997
2 68302  97.2820 208.4019 0001053  55.3308  34.4845 16.07105867  1961
